NORAD_CAT_ID,OBJECT_NAME,OBJECT_TYPE,EPOCH,MEAN_MOTION,ECCENTRICITY,INCLINATION,RA_OF_ASC_NODE,ARG_OF_PERICENTER,MEAN_ANOMALY,BSTAR,MEAN_MOTION_DOT,MEAN_MOTION_DDOT,TLE_LINE0,TLE_LINE1,TLE_LINE2,SEMIMAJOR_AXIS,PERIOD,APOGEE,PERIGEE,DECAYED
52112.0,STARLINK-3734,PAYLOAD,2022-12-14 08:43:25,15.08832711,0.0002243,53.2183,342.2941,33.8209,326.2926,-2.613e-06,-3.3e-06,0.0,0 STARLINK-3734,1 52112U 22029AA  22348.36348383 -.00000330  00000-0 -26130-5 0  9998,2 52112  53.2183 342.2941 0002243  33.8209 326.2926 15.08832711 42446,6917.903,95.438,541.319,538.216,0.0
52112.0,STARLINK-3734,PAYLOAD,2022-12-14 16:40:20,15.08839273,0.0002248,53.2186,340.8092,35.6007,324.5134,8.934299999999999e-05,1.134e-05,0.0,0 STARLINK-3734,1 52112U 22029AA  22348.69467950  .00001134  00000-0  89343-4 0  9991,2 52112  53.2186 340.8092 0002248  35.6007 324.5134 15.08839273 42498,6917.8830000000025,95.438,541.303,538.192,0.0
52112.0,STARLINK-3734,PAYLOAD,2022-12-15 00:37:16,15.08830922,0.0002339,53.2198,339.3212,41.9351,318.182,1.5490999999999998e-05,-4.2e-07,0.0,0 STARLINK-3734,1 52112U 22029AA  22349.02588715 -.00000042  00000-0  15491-4 0  9993,2 52112  53.2198 339.3212 0002339  41.9351 318.1820 15.08830922 42540,6917.908,95.438,541.391,538.155,0.0
52112.0,STARLINK-3734,PAYLOAD,2022-12-15 08:34:12,15.08834118,0.0002399,53.2184,337.8348,38.7874,321.329,3.0594e-05,1.99e-06,0.0,0 STARLINK-3734,1 52112U 22029AA  22349.35708641  .00000199  00000-0  30594-4 0  9994,2 52112  53.2184 337.8348 0002399  38.7874 321.3290 15.08834118 42591,6917.898,95.438,541.423,538.104,0.0
52112.0,STARLINK-3734,PAYLOAD,2022-12-15 16:31:07,15.08843089,0.0002561,53.2181,336.3478,40.1018,320.0162,0.00015125,2.12e-05,0.0,0 STARLINK-3734,1 52112U 22029AA  22349.68827940  .00002120  00000-0  15125-3 0  9992,2 52112  53.2181 336.3478 0002561  40.1018 320.0162 15.08843089 42641,6917.871,95.437,541.508,537.964,0.0
52112.0,STARLINK-3734,PAYLOAD,2022-12-16 08:24:58,15.08852866,0.0002224,53.2186,333.3739,36.0985,324.0157,0.00036503,5.528e-05,0.0,0 STARLINK-3734,1 52112U 22029AA  22350.35067390  .00005528  00000-0  36503-3 0  9991,2 52112  53.2186 333.3739 0002224  36.0985 324.0157 15.08852866 42748,6917.840999999999,95.437,541.245,538.168,0.0
52112.0,STARLINK-3734,PAYLOAD,2022-12-16 22:43:26,15.08843891,0.0002214,53.2183,330.6964,38.8907,321.2244,0.00013267,1.824e-05,0.0,0 STARLINK-3734,1 52112U 22029AA  22350.94683701  .00001824  00000-0  13267-3 0  9993,2 52112  53.2183 330.6964 0002214  38.8907 321.2244 15.08843891 42832,6917.868,95.437,541.265,538.202,0.0
52112.0,STARLINK-3734,PAYLOAD,2022-12-17 09:51:08,15.08836602,0.0002205,53.2191,328.6158,35.5723,324.5416,-5.4377e-05,-1.154e-05,0.0,0 STARLINK-3734,1 52112U 22029AA  22351.41051982 -.00001154  00000-0 -54377-4 0  9992,2 52112  53.2191 328.6158 0002205  35.5723 324.5416 15.08836602 42900,6917.891,95.438,541.281,538.23,0.0
52112.0,STARLINK-3734,PAYLOAD,2022-12-18 09:41:55,15.08842019,0.0002257,53.2185,324.157,33.7446,326.3689,1.0969e-05,-1.14e-06,0.0,0 STARLINK-3734,1 52112U 22029AA  22352.40411952 -.00000114  00000-0  10969-4 0  9992,2 52112  53.2185 324.1570 0002257  33.7446 326.3689 15.08842019 43059,6917.874,95.437,541.3009999999998,538.178,0.0
52112.0,STARLINK-3734,PAYLOAD,2022-12-19 01:35:47,15.08832155,0.0002219,53.2192,321.1834,33.7337,326.3796,0.00011857,1.599e-05,0.0,0 STARLINK-3734,1 52112U 22029AA  22353.06652536  .00001599  00000-0  11857-3 0  9993,2 52112  53.2192 321.1834 0002219  33.7337 326.3796 15.08832155 43154,6917.904,95.438,541.304,538.234,0.0
52112.0,STARLINK-3734,PAYLOAD,2022-12-19 07:57:20,15.08827494,0.000226,53.2191,319.9942,34.5011,325.6127,7.3697e-05,8.84e-06,0.0,0 STARLINK-3734,1 52112U 22029AA  22353.33149205  .00000884  00000-0  73697-4 0  9994,2 52112  53.2191 319.9942 0002260  34.5011 325.6127 15.08827494 43196,6917.919,95.438,541.347,538.22,0.0
52112.0,STARLINK-3734,PAYLOAD,2022-12-20 01:26:34,15.088492,0.0002272,53.219,316.7235,34.9835,325.1306,0.00022324,3.267e-05,0.0,0 STARLINK-3734,1 52112U 22029AA  22354.06011614  .00003267  00000-0  22324-3 0  9995,2 52112  53.2190 316.7235 0002272  34.9835 325.1306 15.08849200 43302,6917.852,95.437,541.289,538.146,0.0
52112.0,STARLINK-3734,PAYLOAD,2022-12-20 07:48:06,15.08858685,0.0002389,53.2179,315.5343,36.2691,323.8463,0.00045502,6.965e-05,0.0,0 STARLINK-3734,1 52112U 22029AA  22354.32507675  .00006965  00000-0  45502-3 0  9992,2 52112  53.2179 315.5343 0002389  36.2691 323.8463 15.08858685 43340,6917.823,95.436,541.341,538.036,0.0
52112.0,STARLINK-3734,PAYLOAD,2022-12-21 01:17:21,15.08847464,0.0002117,53.2171,312.259,34.1399,325.9729,6.1901e-05,6.97e-06,0.0,0 STARLINK-3734,1 52112U 22029AA  22355.05371638  .00000697  00000-0  61901-4 0  9999,2 52112  53.2171 312.2590 0002117  34.1399 325.9729 15.08847464 43454,6917.858,95.437,541.187,538.258,0.0
52112.0,STARLINK-3734,PAYLOAD,2022-12-21 04:28:07,15.08832924,0.0002088,53.2183,311.6701,36.3531,323.7603,-0.00022125,-3.807e-05,0.0,0 STARLINK-3734,1 52112U 22029AA  22355.18620263 -.00003807  00000-0 -22125-3 0  9996,2 52112  53.2183 311.6701 0002088  36.3531 323.7603 15.08832924 43477,6917.901999999999,95.438,541.211,538.323,0.0
52112.0,STARLINK-3734,PAYLOAD,2022-12-22 01:08:08,15.08842488,0.0002217,53.2179,307.8022,36.5423,323.572,0.00015464,2.174e-05,0.0,0 STARLINK-3734,1 52112U 22029AA  22356.04732151  .00002174  00000-0  15464-3 0  9994,2 52112  53.2179 307.8022 0002217  36.5423 323.5720 15.08842488 43600,6917.873000000001,95.437,541.271,538.2040000000002,0.0
52112.0,STARLINK-3734,PAYLOAD,2022-12-22 05:54:18,15.08848846,0.0002189,53.2177,306.91,38.5609,321.5539,0.00062354,9.652e-05,0.0,0 STARLINK-3734,1 52112U 22029AA  22356.24604252  .00009652  00000-0  62354-3 0  9994,2 52112  53.2177 306.9100 0002189  38.5609 321.5539 15.08848846 43634,6917.853,95.437,541.2330000000002,538.2040000000002,0.0
52112.0,STARLINK-3734,PAYLOAD,2022-12-22 15:26:36,15.08855043,0.0002076,53.2175,305.1259,41.2381,318.8767,0.00076507,0.00011914,0.0,0 STARLINK-3734,1 52112U 22029AA  22356.64348104  .00011914  00000-0  76507-3 0  9998,2 52112  53.2175 305.1259 0002076  41.2381 318.8767 15.08855043 43696,6917.834,95.437,541.136,538.263,0.0
52112.0,STARLINK-3734,PAYLOAD,2022-12-23 00:58:55,15.08840688,0.0002357,53.2177,303.3426,32.6516,327.4621,0.00016448,2.33e-05,0.0,0 STARLINK-3734,1 52112U 22029AA  22357.04092392  .00002330  00000-0  16448-3 0  9998,2 52112  53.2177 303.3426 0002357  32.6516 327.4621 15.08840688 43751,6917.878000000002,95.438,541.374,538.113,0.0
52112.0,STARLINK-3734,PAYLOAD,2022-12-23 13:42:01,15.08828782,0.0002189,53.2178,300.9629,36.0685,324.0455,-8.432200000000001e-05,-1.63e-05,0.0,0 STARLINK-3734,1 52112U 22029AA  22357.57085065 -.00001630  00000-0 -84322-4 0  9996,2 52112  53.2178 300.9629 0002189  36.0685 324.0455 15.08828782 43836,6917.915,95.438,541.294,538.265,0.0
52112.0,STARLINK-3734,PAYLOAD,2022-12-23 16:52:47,15.08831619,0.0002281,53.2179,300.3688,36.6667,323.4481,5.5343e-05,5.92e-06,0.0,0 STARLINK-3734,1 52112U 22029AA  22357.70333190  .00000592  00000-0  55343-4 0  9991,2 52112  53.2179 300.3688 0002281  36.6667 323.4481 15.08831619 43852,6917.906,95.438,541.349,538.193,0.0
52112.0,STARLINK-3734,PAYLOAD,2022-12-23 20:03:34,15.08837713,0.0002279,53.2172,299.7738,40.0054,320.1106,0.00032389,4.870000000000001e-05,0.0,0 STARLINK-3734,1 52112U 22029AA  22357.83581184  .00004870  00000-0  32389-3 0  9990,2 52112  53.2172 299.7738 0002279  40.0054 320.1106 15.08837713 43879,6917.887,95.438,541.3290000000002,538.1759999999998,0.0
52112.0,STARLINK-3734,PAYLOAD,2022-12-24 02:25:06,15.08842579,0.0002267,53.2171,298.5842,40.1224,319.9935,0.00084331,0.0001315999999999,0.0,0 STARLINK-3734,1 52112U 22029AA  22358.10077342  .00013160  00000-0  84331-3 0  9993,2 52112  53.2171 298.5842 0002267  40.1224 319.9935 15.08842579 43915,6917.873000000001,95.437,541.306,538.169,0.0
52112.0,STARLINK-3734,PAYLOAD,2022-12-24 19:54:21,15.08856001,0.0002389,53.2176,295.3141,40.8144,319.3027,0.00070832,0.00011008,0.0,0 STARLINK-3734,1 52112U 22029AA  22358.82940974  .00011008  00000-0  70832-3 0  9992,2 52112  53.2176 295.3141 0002389  40.8144 319.3027 15.08856001 44024,6917.831,95.437,541.349,538.044,0.0
52112.0,STARLINK-3734,PAYLOAD,2022-12-25 02:15:53,15.08860723,0.0002358,53.2175,294.1242,41.5142,318.6029,0.00067453,0.00010469,0.0,0 STARLINK-3734,1 52112U 22029AA  22359.09436662  .00010469  00000-0  67453-3 0  9991,2 52112  53.2175 294.1242 0002358  41.5142 318.6029 15.08860723 44068,6917.816999999999,95.436,541.313,538.0509999999998,0.0
52112.0,STARLINK-3734,PAYLOAD,2022-12-25 05:26:39,15.08849232,0.0002265,53.2187,293.531,28.9212,331.1905,0.00017577,2.511e-05,0.0,0 STARLINK-3734,1 52112U 22029AA  22359.22684655  .00002511  00000-0  17577-3 0  9994,2 52112  53.2187 293.5310 0002265  28.9212 331.1905 15.08849232 44081,6917.852,95.437,541.284,538.15,0.0
52112.0,STARLINK-3734,PAYLOAD,2022-12-25 13:23:35,15.08833569,0.0002265,53.2182,292.043,34.2306,325.8832,-0.0001968,-3.419e-05,0.0,0 STARLINK-3734,1 52112U 22029AA  22359.55805192 -.00003419  00000-0 -19680-3 0  9998,2 52112  53.2182 292.0430 0002265  34.2306 325.8832 15.08833569 44138,6917.9,95.438,541.332,538.198,0.0
52112.0,STARLINK-3734,PAYLOAD,2022-12-26 05:17:27,15.08837358,0.000239,53.2176,289.0688,42.3098,317.8078,6.493800000000001e-05,7.45e-06,0.0,0 STARLINK-3734,1 52112U 22029AA  22360.22045770  .00000745  00000-0  64938-4 0  9996,2 52112  53.2176 289.0688 0002390  42.3098 317.8078 15.08837358 44233,6917.888000000001,95.438,541.4069999999998,538.1,0.0
52112.0,STARLINK-3734,PAYLOAD,2022-12-27 01:57:27,15.08848776,0.0002425,53.2175,285.2038,40.8105,319.3068,0.00031845,4.785e-05,0.0,0 STARLINK-3734,1 52112U 22029AA  22361.08157356  .00004785  00000-0  31845-3 0  9993,2 52112  53.2175 285.2038 0002425  40.8105 319.3068 15.08848776 44366,6917.854,95.437,541.396,538.0409999999998,0.0
